{"type": "FeatureCollection", "features": [ {"type": "Feature", "properties": {"norad_id": 35443, "name": "COSMOS 2251 DEB", "group": "cosmos-2251-debris", "lat": -37.1176192022471, "lon": 156.0241668301303, "alt_km": 603.0729761499206, "timestamp": "2025-12-16T17:51:11.328464+00:00", "meta": {"OBJECT_NAME": "COSMOS 2251 DEB", "OBJECT_ID": "1993-036AKM", "EPOCH": "2025-12-15T08:48:26.743680", "MEAN_MOTION": 14.96932548, "ECCENTRICITY": 0.00731181, "INCLINATION": 73.9871, "RA_OF_ASC_NODE": 326.2641, "ARG_OF_PERICENTER": 107.3149, "MEAN_ANOMALY": 253.6052, "EPHEMERIS_TYPE": 0, "CLASSIFICATION_TYPE": "U", "NORAD_CAT_ID": 35443, "ELEMENT_SET_NO": 999, "REV_AT_EPOCH": 86917, "BSTAR": 0.0020713088, "MEAN_MOTION_DOT": 0.00025182, "MEAN_MOTION_DDOT": 0}, "tle": {"line1": "1 35443U 93036AKM 25349.36697620  .00025182  00000+0  20713-2 0  9994", "line2": "2 35443  73.9871 326.2641 0073118 107.3149 253.6052 14.96932548869170"}}, "geometry": {"type": "Point", "coordinates": [156.0241668301303, -37.1176192022471]}}, {"type": "Feature", "properties": {"norad_id": 35445, "name": "COSMOS 2251 DEB", "group": "cosmos-2251-debris", "lat": 65.16291457541969, "lon": -29.42667536415991, "alt_km": 625.8934351800808, "timestamp": "2025-12-16T17:51:11.328474+00:00", "meta": {"OBJECT_NAME": "COSMOS 2251 DEB", "OBJECT_ID": "1993-036AKP", "EPOCH": "2025-12-15T21:47:39.126336", "MEAN_MOTION": 14.59222686, "ECCENTRICITY": 0.01438348, "INCLINATION": 74.0368, "RA_OF_ASC_NODE": 293.9647, "ARG_OF_PERICENTER": 20.1975, "MEAN_ANOMALY": 340.4799, "EPHEMERIS_TYPE": 0, "CLASSIFICATION_TYPE": "U", "NORAD_CAT_ID": 35445, "ELEMENT_SET_NO": 999, "REV_AT_EPOCH": 87375, "BSTAR": 0.0015699344, "MEAN_MOTION_DOT": 8.537e-05, "MEAN_MOTION_DDOT": 0}, "tle": {"line1": "1 35445U 93036AKP 25349.90809174  .00008537  00000+0  15699-2 0  9997", "line2": "2 35445  74.0368 293.9647 0143834  20.1975 340.4799 14.59222686873759"}}, "geometry": {"type": "Point", "coordinates": [-29.42667536415991, 65.16291457541969]}}, {"type": "Feature", "properties": {"norad_id": 35446, "name": "COSMOS 2251 DEB", "group": "cosmos-2251-debris", "lat": 37.627649234550134, "lon": -36.65008499733324, "alt_km": 660.8590358026831, "timestamp": "2025-12-16T17:51:11.328484+00:00", "meta": {"OBJECT_NAME": "COSMOS 2251 DEB", "OBJECT_ID": "1993-036AKQ", "EPOCH": "2025-12-15T15:15:54.535104", "MEAN_MOTION": 14.54632134, "ECCENTRICITY": 0.00744411, "INCLINATION": 74.047, "RA_OF_ASC_NODE": 312.705, "ARG_OF_PERICENTER": 70.0614, "MEAN_ANOMALY": 290.8548, "EPHEMERIS_TYPE": 0, "CLASSIFICATION_TYPE": "U", "NORAD_CAT_ID": 35446, "ELEMENT_SET_NO": 999, "REV_AT_EPOCH": 88050, "BSTAR": 0.00011676696, "MEAN_MOTION_DOT": 4.88e-06, "MEAN_MOTION_DDOT": 0}, "tle": {"line1": "1 35446U 93036AKQ 25349.63604786  .00000488  00000+0  11677-3 0  9990", "line2": "2 35446  74.0470 312.7050 0074441  70.0614 290.8548 14.54632134880502"}}, "geometry": {"type": "Point", "coordinates": [-36.65008499733324, 37.627649234550134]}}, {"type": "Feature", "properties": {"norad_id": 35448, "name": "COSMOS 2251 DEB", "group": "cosmos-2251-debris", "lat": -67.34277931695091, "lon": -54.35526236185039, "alt_km": 710.166405756142, "timestamp": "2025-12-16T17:51:11.328494+00:00", "meta": {"OBJECT_NAME": "COSMOS 2251 DEB", "OBJECT_ID": "1993-036AKS", "EPOCH": "2025-12-14T16:48:40.813632", "MEAN_MOTION": 14.54286955, "ECCENTRICITY": 0.00119673, "INCLINATION": 73.9048, "RA_OF_ASC_NODE": 85.7736, "ARG_OF_PERICENTER": 268.2948, "MEAN_ANOMALY": 91.6843, "EPHEMERIS_TYPE": 0, "CLASSIFICATION_TYPE": "U", "NORAD_CAT_ID": 35448, "ELEMENT_SET_NO": 999, "REV_AT_EPOCH": 87363, "BSTAR": 0.00094048305, "MEAN_MOTION_DOT": 3.966e-05, "MEAN_MOTION_DDOT": 0}, "tle": {"line1": "1 35448U 93036AKS 25348.70047238  .00003966  00000+0  94048-3 0  9999", "line2": "2 35448  73.9048  85.7736 0011967 268.2948  91.6843 14.54286955873633"}}, "geometry": {"type": "Point", "coordinates": [-54.35526236185039, -67.34277931695091]}}, {"type": "Feature", "properties": {"norad_id": 35451, "name": "COSMOS 2251 DEB", "group": "cosmos-2251-debris", "lat": 9.458099544350555, "lon": 96.76921238723496, "alt_km": 435.18982127342224, "timestamp": "2025-12-16T17:51:11.328505+00:00", "meta": {"OBJECT_NAME": "COSMOS 2251 DEB", "OBJECT_ID": "1993-036AKV", "EPOCH": "2025-12-14T17:21:00.017568", "MEAN_MOTION": 15.35844177, "ECCENTRICITY": 0.00411257, "INCLINATION": 73.9322, "RA_OF_ASC_NODE": 98.383, "ARG_OF_PERICENTER": 344.054, "MEAN_ANOMALY": 15.9367, "EPHEMERIS_TYPE": 0, "CLASSIFICATION_TYPE": "U", "NORAD_CAT_ID": 35451, "ELEMENT_SET_NO": 999, "REV_AT_EPOCH": 67436, "BSTAR": 0.0011714729, "MEAN_MOTION_DOT": 0.00042215, "MEAN_MOTION_DDOT": 0}, "tle": {"line1": "1 35451U 93036AKV 25348.72291687  .00042215  00000+0  11715-2 0  9993", "line2": "2 35451  73.9322  98.3830 0041125 344.0540  15.9367 15.35844177674362"}}, "geometry": {"type": "Point", "coordinates": [96.76921238723496, 9.458099544350555]}}, {"type": "Feature", "properties": {"norad_id": 35453, "name": "COSMOS 2251 DEB", "group": "cosmos-2251-debris", "lat": 65.86274578294783, "lon": 52.77364818049517, "alt_km": 744.9830571102657, "timestamp": "2025-12-16T17:51:11.328515+00:00", "meta": {"OBJECT_NAME": "COSMOS 2251 DEB", "OBJECT_ID": "1993-036AKX", "EPOCH": "2025-12-12T10:00:01.192608", "MEAN_MOTION": 14.37983532, "ECCENTRICITY": 0.00672601, "INCLINATION": 74.0093, "RA_OF_ASC_NODE": 20.9669, "ARG_OF_PERICENTER": 155.0047, "MEAN_ANOMALY": 205.439, "EPHEMERIS_TYPE": 0, "CLASSIFICATION_TYPE": "U", "NORAD_CAT_ID": 35453, "ELEMENT_SET_NO": 999, "REV_AT_EPOCH": 86214, "BSTAR": 0.0010887113, "MEAN_MOTION_DOT": 3.355e-05, "MEAN_MOTION_DDOT": 0}, "tle": {"line1": "1 35453U 93036AKX 25346.41668047  .00003355  00000+0  10887-2 0  9998", "line2": "2 35453  74.0093  20.9669 0067260 155.0047 205.4390 14.37983532862149"}}, "geometry": {"type": "Point", "coordinates": [52.77364818049517, 65.86274578294783]}}, {"type": "Feature", "properties": {"norad_id": 35455, "name": "COSMOS 2251 DEB", "group": "cosmos-2251-debris", "lat": 73.9918959769599, "lon": 20.65763070847154, "alt_km": 685.3761534897912, "timestamp": "2025-12-16T17:51:11.328525+00:00", "meta": {"OBJECT_NAME": "COSMOS 2251 DEB", "OBJECT_ID": "1993-036AKZ", "EPOCH": "2025-12-15T06:39:23.942880", "MEAN_MOTION": 14.49440801, "ECCENTRICITY": 0.00992528, "INCLINATION": 74.0281, "RA_OF_ASC_NODE": 290.039, "ARG_OF_PERICENTER": 32.9545, "MEAN_ANOMALY": 327.7748, "EPHEMERIS_TYPE": 0, "CLASSIFICATION_TYPE": "U", "NORAD_CAT_ID": 35455, "ELEMENT_SET_NO": 999, "REV_AT_EPOCH": 86580, "BSTAR": 0.0011136115, "MEAN_MOTION_DOT": 4.513e-05, "MEAN_MOTION_DDOT": 0}, "tle": {"line1": "1 35455U 93036AKZ 25349.27736045  .00004513  00000+0  11136-2 0  9996", "line2": "2 35455  74.0281 290.0390 0099252  32.9545 327.7748 14.49440801865804"}}, "geometry": {"type": "Point", "coordinates": [20.65763070847154, 73.9918959769599]}}, {"type": "Feature", "properties": {"norad_id": 35456, "name": "COSMOS 2251 DEB", "group": "cosmos-2251-debris", "lat": 19.212942777746488, "lon": 115.43651830161278, "alt_km": 640.0678833195507, "timestamp": "2025-12-16T17:51:11.328535+00:00", "meta": {"OBJECT_NAME": "COSMOS 2251 DEB", "OBJECT_ID": "1993-036ALA", "EPOCH": "2025-12-14T15:06:45.279936", "MEAN_MOTION": 14.69470866, "ECCENTRICITY": 0.00660928, "INCLINATION": 73.9499, "RA_OF_ASC_NODE": 113.7944, "ARG_OF_PERICENTER": 323.212, "MEAN_ANOMALY": 36.4523, "EPHEMERIS_TYPE": 0, "CLASSIFICATION_TYPE": "U", "NORAD_CAT_ID": 35456, "ELEMENT_SET_NO": 999, "REV_AT_EPOCH": 65903, "BSTAR": 0.0014662865, "MEAN_MOTION_DOT": 8.962e-05, "MEAN_MOTION_DDOT": 0}, "tle": {"line1": "1 35456U 93036ALA 25348.62969074  .00008962  00000+0  14663-2 0  9995", "line2": "2 35456  73.9499 113.7944 0066092 323.2120  36.4523 14.69470866659038"}}, "geometry": {"type": "Point", "coordinates": [115.43651830161278, 19.212942777746488]}}, {"type": "Feature", "properties": {"norad_id": 35459, "name": "COSMOS 2251 DEB", "group": "cosmos-2251-debris", "lat": -55.72664097672857, "lon": 154.7136223457404, "alt_km": 785.1146403968542, "timestamp": "2025-12-16T17:51:11.328545+00:00", "meta": {"OBJECT_NAME": "COSMOS 2251 DEB", "OBJECT_ID": "1993-036ALD", "EPOCH": "2025-12-13T06:36:57.783456", "MEAN_MOTION": 14.37463066, "ECCENTRICITY": 0.00162707, "INCLINATION": 73.8693, "RA_OF_ASC_NODE": 186.288, "ARG_OF_PERICENTER": 133.9432, "MEAN_ANOMALY": 226.3067, "EPHEMERIS_TYPE": 0, "CLASSIFICATION_TYPE": "U", "NORAD_CAT_ID": 35459, "ELEMENT_SET_NO": 999, "REV_AT_EPOCH": 58369, "BSTAR": 0.00036578266, "MEAN_MOTION_DOT": 1.069e-05, "MEAN_MOTION_DDOT": 0}, "tle": {"line1": "1 35459U 93036ALD 25347.27566879  .00001069  00000+0  36578-3 0  9995", "line2": "2 35459  73.8693 186.2880 0016270 133.9432 226.3067 14.37463066583695"}}, "geometry": {"type": "Point", "coordinates": [154.7136223457404, -55.72664097672857]}}, {"type": "Feature", "properties": {"norad_id": 35462, "name": "COSMOS 2251 DEB", "group": "cosmos-2251-debris", "lat": -61.88489849276829, "lon": 113.80612589971872, "alt_km": 759.80288705164, "timestamp": "2025-12-16T17:51:11.328555+00:00", "meta": {"OBJECT_NAME": "COSMOS 2251 DEB", "OBJECT_ID": "1993-036ALG", "EPOCH": "2025-12-15T12:08:22.276032", "MEAN_MOTION": 14.29319782, "ECCENTRICITY": 0.00867718, "INCLINATION": 74.0367, "RA_OF_ASC_NODE": 263.6601, "ARG_OF_PERICENTER": 298.2214, "MEAN_ANOMALY": 61.0193, "EPHEMERIS_TYPE": 0, "CLASSIFICATION_TYPE": "U", "NORAD_CAT_ID": 35462, "ELEMENT_SET_NO": 999, "REV_AT_EPOCH": 66420, "BSTAR": 0.0011070348, "MEAN_MOTION_DOT": 2.91e-05, "MEAN_MOTION_DDOT": 0}, "tle": {"line1": "1 35462U 93036ALG 25349.50581338  .00002910  00000+0  11070-2 0  9999", "line2": "2 35462  74.0367 263.6601 0086771 298.2214  61.0193 14.29319782664204"}}, "geometry": {"type": "Point", "coordinates": [113.80612589971872, -61.88489849276829]}}]}